{
"type": "FeatureCollection",
"name": "admn4326",
"crs": { "type": "name", "properties": { "name": "urn:ogc:def:crs:OGC:1.3:CRS84" } },
"features": [
{ "type": "Feature", "properties": { "fid": 1, "boundaryor": "ทต.เด่นชัย" }, "geometry": { "type": "MultiPolygon", "coordinates": [ [ [ [ 100.029308105122794, 17.993985448619828 ], [ 100.032334067324413, 17.993628941902784 ], [ 100.033981131522694, 17.993975304478639 ], [ 100.034599282159846, 17.995006812504915 ], [ 100.03567466842307, 17.996789559854623 ], [ 100.035866616275129, 17.997121566742337 ], [ 100.036252771004342, 17.999373400456541 ], [ 100.035847891812182, 18.001268165512744 ], [ 100.03615851077339, 18.00141432741156 ], [ 100.037259308164792, 18.001935149070157 ], [ 100.037716927366432, 18.002015708834673 ], [ 100.038551737277771, 18.001862280844819 ], [ 100.039861826049616, 18.001680598733721 ], [ 100.040554569451047, 18.001584589042295 ], [ 100.041883337726745, 18.002207965995158 ], [ 100.041968444303464, 18.002578967869312 ], [ 100.043736010037819, 18.002309286282525 ], [ 100.043912834339196, 18.003314384542897 ], [ 100.044551729200109, 18.003219709284419 ], [ 100.045589780891831, 18.002772081641428 ], [ 100.046155431566433, 18.003918851758051 ], [ 100.047051205330789, 18.003474398593369 ], [ 100.047861894042725, 18.004522710759318 ], [ 100.048054524864256, 18.004374009645637 ], [ 100.048873379009336, 18.003884928417364 ], [ 100.049149798946729, 18.003784401396235 ], [ 100.049334863767541, 18.0040662119982 ], [ 100.049243698073937, 18.004102631806244 ], [ 100.049501575106461, 18.004451030542917 ], [ 100.050443405048142, 18.004035209337349 ], [ 100.050769396229043, 18.003876581360366 ], [ 100.051177792068543, 18.003766442131429 ], [ 100.0514791764287, 18.004452112413226 ], [ 100.051830974950164, 18.004156888027868 ], [ 100.052160447728426, 18.00404593089004 ], [ 100.052515762886344, 18.004003012913998 ], [ 100.052679250709033, 18.00512895996167 ], [ 100.053512263446308, 18.004846198729027 ], [ 100.055143295988017, 18.004279168123858 ], [ 100.056300653698358, 18.00396356993771 ], [ 100.057006213083099, 18.004060937763711 ], [ 100.057605050401477, 18.004106626726454 ], [ 100.057815584345065, 18.004337874631965 ], [ 100.058752419002488, 18.004366669236113 ], [ 100.059117384188511, 18.00424394282194 ], [ 100.059556394504625, 18.00404982735844 ], [ 100.059927896584682, 18.003875543745483 ], [ 100.060493214149744, 18.003737993383606 ], [ 100.060472736682286, 18.005430392549798 ], [ 100.062010390317468, 18.005017810481306 ], [ 100.062695190122582, 18.006155121534348 ], [ 100.063436421552382, 18.005857326933672 ], [ 100.063456264967414, 18.005878212581848 ], [ 100.063555142525217, 18.005831941534232 ], [ 100.063686937725492, 18.005776953517078 ], [ 100.063679231456632, 18.005756897172137 ], [ 100.063905418670288, 18.005634923629717 ], [ 100.064108848571621, 18.005496959484038 ], [ 100.064576303272347, 18.005296954875629 ], [ 100.064146343742749, 18.004005795096145 ], [ 100.065471215412131, 18.003347070074835 ], [ 100.064971885979446, 18.002698412170993 ], [ 100.0667976881724, 18.001676898316063 ], [ 100.067733902379658, 17.998425334440597 ], [ 100.068069558616358, 17.99719991896513 ], [ 100.069126406708506, 17.996006012264761 ], [ 100.068244577047054, 17.995437510590431 ], [ 100.070135161542865, 17.994190387234461 ], [ 100.069583527812796, 17.993432048910293 ], [ 100.070390367005956, 17.992748851071244 ], [ 100.070153637168715, 17.99228767450435 ], [ 100.071783729915566, 17.991223095922997 ], [ 100.071240710168667, 17.990555681247827 ], [ 100.071790683337753, 17.990265506822034 ], [ 100.071453789740772, 17.98963991509914 ], [ 100.072805656270845, 17.988979489865681 ], [ 100.072753643166934, 17.988076132072944 ], [ 100.072588881773271, 17.987663002832161 ], [ 100.072746711505459, 17.987428291717602 ], [ 100.072576788427696, 17.987332051176622 ], [ 100.072664373920034, 17.987149517541933 ], [ 100.072935055367509, 17.987246891324837 ], [ 100.073672955106403, 17.986627769103524 ], [ 100.074003412862709, 17.986231447255527 ], [ 100.074891777813747, 17.985564114904491 ], [ 100.07471027675426, 17.985166998041212 ], [ 100.07525804044019, 17.984452233010543 ], [ 100.075940559765641, 17.983169160362724 ], [ 100.076793178225586, 17.982124431014192 ], [ 100.077504769595095, 17.982835575247151 ], [ 100.078426343807223, 17.981971878993701 ], [ 100.079104584447364, 17.98163900905206 ], [ 100.079995438024497, 17.98102351794342 ], [ 100.079185145470717, 17.979587920895543 ], [ 100.079825781341512, 17.979524815084968 ], [ 100.079074455503729, 17.978419892656508 ], [ 100.078715656941839, 17.976844168883051 ], [ 100.079853543641164, 17.976420639004715 ], [ 100.081040377536453, 17.975998760650029 ], [ 100.081211388317101, 17.97582178746768 ], [ 100.081680346615755, 17.975643141722134 ], [ 100.081669531287773, 17.975429051257002 ], [ 100.08183512992926, 17.975345736836719 ], [ 100.081871524267868, 17.975176894151396 ], [ 100.082348020261776, 17.974868526218486 ], [ 100.082662244719913, 17.974384874007033 ], [ 100.082392651068631, 17.973961448066063 ], [ 100.082264466417797, 17.973703882798439 ], [ 100.082133919409458, 17.973419844257855 ], [ 100.081627601898361, 17.972083504298539 ], [ 100.081200521016683, 17.971994028984767 ], [ 100.081028579663908, 17.972354761251754 ], [ 100.081022638920814, 17.973439639657453 ], [ 100.079739971053712, 17.973041427080563 ], [ 100.079082561914575, 17.972844619889457 ], [ 100.078487176928903, 17.972670674312287 ], [ 100.077953060138938, 17.972486155363359 ], [ 100.077443694449656, 17.971955760088957 ], [ 100.076830456981924, 17.971220773088838 ], [ 100.076128104008575, 17.970339707017246 ], [ 100.07591888960637, 17.969835507037754 ], [ 100.075877352086408, 17.969755949572995 ], [ 100.075658825722485, 17.969778602658064 ], [ 100.075394967985659, 17.968664550995019 ], [ 100.074274142481173, 17.969761376655288 ], [ 100.074833737977457, 17.970576413962487 ], [ 100.074105139913669, 17.971065240484467 ], [ 100.073607549032374, 17.971057223211272 ], [ 100.073448664441031, 17.971169015519315 ], [ 100.073438733024346, 17.971342994755794 ], [ 100.073459861568082, 17.971506126952445 ], [ 100.073563047000903, 17.97175066577649 ], [ 100.06896596423563, 17.9701387269957 ], [ 100.069082403421064, 17.969557929978297 ], [ 100.068803267844388, 17.96946104374846 ], [ 100.068891230753593, 17.968977922199755 ], [ 100.068383697474559, 17.96876928960684 ], [ 100.068409844407455, 17.968441426629315 ], [ 100.068429770881139, 17.96831459401443 ], [ 100.068050850586246, 17.968284774401845 ], [ 100.067506873964177, 17.968186125794904 ], [ 100.067110274759216, 17.968129919159818 ], [ 100.066900661653605, 17.967119594449354 ], [ 100.06627873375129, 17.967041830912876 ], [ 100.066050582915295, 17.968369935942292 ], [ 100.064918238600598, 17.969340409538656 ], [ 100.062975549691231, 17.968590287940586 ], [ 100.057713554618616, 17.966593766783216 ], [ 100.052577479333308, 17.965976771623886 ], [ 100.042374508539268, 17.971583530346134 ], [ 100.04027039507595, 17.972861241658066 ], [ 100.041137929528801, 17.974257395317458 ], [ 100.039067954479336, 17.97568783757502 ], [ 100.036656176604097, 17.977332236383102 ], [ 100.032886325936516, 17.977719910922406 ], [ 100.029748964554372, 17.979212524120427 ], [ 100.029114896557218, 17.980038113869053 ], [ 100.028691263731403, 17.98378169512138 ], [ 100.02896666152958, 17.984027543612829 ], [ 100.029027767891193, 17.985150549254151 ], [ 100.028899374823951, 17.985865014093903 ], [ 100.029078139076077, 17.986848708584432 ], [ 100.028778163390768, 17.987691226129606 ], [ 100.028546033560247, 17.988513710550638 ], [ 100.028389606215043, 17.989561688556464 ], [ 100.028515615676611, 17.990324992248041 ], [ 100.028825162619142, 17.991066766666439 ], [ 100.028997101035287, 17.991570499195291 ], [ 100.02816177154584, 17.992674770377445 ], [ 100.0285602202365, 17.993362497553022 ], [ 100.029308105122794, 17.993985448619828 ] ] ] ] } }
]
}
